NORAD_CAT_ID,OBJECT_NAME,OBJECT_TYPE,EPOCH,MEAN_MOTION,ECCENTRICITY,INCLINATION,RA_OF_ASC_NODE,ARG_OF_PERICENTER,MEAN_ANOMALY,BSTAR,MEAN_MOTION_DOT,MEAN_MOTION_DDOT,TLE_LINE0,TLE_LINE1,TLE_LINE2,SEMIMAJOR_AXIS,PERIOD,APOGEE,PERIGEE,DECAYED
56786.0,STARLINK-6341,PAYLOAD,2024-03-10 21:08:48,14.98325971,0.000288,70.0018,2.0977,269.2253,90.8576,2.1684e-05,1.66e-06,0.0,0 STARLINK-6341,1 56786U 23078V   24070.88111443  .00000166  00000-0  21684-4 0  9993,2 56786  70.0018   2.0977 0002880 269.2253  90.8576 14.98325971 44262,6950.205,96.107,574.072,570.069,0.0
56786.0,STARLINK-6341,PAYLOAD,2024-03-10 22:44:56,14.98325774,0.0002883,70.0018,1.9294,269.2561,90.8267,1.8333e-05,1.26e-06,0.0,0 STARLINK-6341,1 56786U 23078V   24070.94787477  .00000126  00000-0  18333-4 0  9999,2 56786  70.0018   1.9294 0002883 269.2561  90.8267 14.98325774 44018,6950.206,96.107,574.075,570.067,0.0
56786.0,STARLINK-6341,PAYLOAD,2024-03-11 13:10:08,14.98330868,0.0002849,70.0015,0.4134,279.0778,81.0059,-5.3406e-05,-7.3e-06,0.0,0 STARLINK-6341,1 56786U 23078V   24071.54871378 -.00000730  00000-0 -53406-4 0  9993,2 56786  70.0015   0.4134 0002849 279.0778  81.0059 14.98330868 44104,6950.19,96.107,574.035,570.075,0.0
56786.0,STARLINK-6341,PAYLOAD,2024-03-12 03:35:21,14.98328497,0.0002861,70.0016,358.8986,267.9564,92.1267,-3.2397e-05,-4.79e-06,0.0,0 STARLINK-6341,1 56786U 23078V   24072.14955436 -.00000479  00000-0 -32397-4 0  9994,2 56786  70.0016 358.8986 0002861 267.9564  92.1267 14.98328497 44450,6950.198,96.107,574.051,570.074,0.0
56786.0,STARLINK-6341,PAYLOAD,2024-03-12 05:11:29,14.9832908,0.0002908,70.0014,358.7302,267.7844,92.2982,-2.0298e-05,-3.35e-06,0.0,0 STARLINK-6341,1 56786U 23078V   24072.21631362 -.00000335  00000-0 -20298-4 0  9999,2 56786  70.0014 358.7302 0002908 267.7844  92.2982 14.98329080 44207,6950.196,96.107,574.082,570.04,0.0
56786.0,STARLINK-6341,PAYLOAD,2024-03-13 02:01:14,14.98333392,0.0002647,70.0015,356.5428,269.0082,91.0774,3.4084e-05,3.14e-06,0.0,0 STARLINK-6341,1 56786U 23078V   24073.08419014  .00000314  00000-0  34084-4 0  9996,2 56786  70.0015 356.5428 0002647 269.0082  91.0774 14.98333392 44591,6950.182,96.107,573.887,570.208,0.0
56786.0,STARLINK-6341,PAYLOAD,2024-03-13 11:38:02,14.98338487,0.0002497,70.0022,355.5324,268.101,91.9863,-0.00011413,-1.455e-05,0.0,0 STARLINK-6341,1 56786U 23078V   24073.48474963 -.00001455  00000-0 -11413-3 0  9993,2 56786  70.0022 355.5324 0002497 268.1010  91.9863 14.98338487 44393,6950.167,96.106,573.767,570.296,0.0
56786.0,STARLINK-6341,PAYLOAD,2024-03-13 22:50:59,14.98329775,0.0002415,70.0022,354.3542,269.1561,90.9321,2.5862e-05,2.16e-06,0.0,0 STARLINK-6341,1 56786U 23078V   24073.95207188  .00000216  00000-0  25862-4 0  9994,2 56786  70.0022 354.3542 0002415 269.1561  90.9321 14.98329775 44460,6950.194,96.107,573.737,570.38,0.0
56786.0,STARLINK-6341,PAYLOAD,2024-03-14 03:39:23,14.98331254,0.0002264,70.0025,353.8487,276.1377,83.9524,7.7611e-06,0.0,0.0,0 STARLINK-6341,1 56786U 23078V   24074.15235248 -.00000000  00000-0  77611-5 0  9997,2 56786  70.0025 353.8487 0002264 276.1377  83.9524 14.98331254 44754,6950.189,96.107,573.628,570.48,0.0
56786.0,STARLINK-6341,PAYLOAD,2024-03-14 05:15:31,14.98331708,0.0002216,70.0026,353.6802,276.6499,83.4408,1.422e-05,7.7e-07,0.0,0 STARLINK-6341,1 56786U 23078V   24074.21911210  .00000077  00000-0  14220-4 0  9993,2 56786  70.0026 353.6802 0002216 276.6499  83.4408 14.98331708 44504,6950.188,96.107,573.593,570.512,0.0
56786.0,STARLINK-6341,PAYLOAD,2024-03-14 21:16:52,14.98310398,0.0001957,70.0029,351.9976,269.5407,90.5527,0.00026628,3.084e-05,0.0,0 STARLINK-6341,1 56786U 23078V   24074.88671404  .00003084  00000-0  26628-3 0  9999,2 56786  70.0029 351.9976 0001957 269.5407  90.5527 14.98310398 44605,6950.254,96.108,573.479,570.758,0.0
56786.0,STARLINK-6341,PAYLOAD,2024-03-15 03:41:24,14.98330421,0.0002282,70.0026,351.3245,263.6173,96.4726,-0.00011255,-1.435e-05,0.0,0 STARLINK-6341,1 56786U 23078V   24075.15375536 -.00001435  00000-0 -11255-3 0  9997,2 56786  70.0026 351.3245 0002282 263.6173  96.4726 14.98330421 44900,6950.192,96.107,573.643,570.471,0.0
56786.0,STARLINK-6341,PAYLOAD,2024-03-15 22:55:01,14.98297499,0.0002724,70.002,349.3051,257.33,102.7554,0.00055414,6.519e-05,0.0,0 STARLINK-6341,1 56786U 23078V   24075.95487964  .00006519  00000-0  55414-3 0  9995,2 56786  70.0020 349.3051 0002724 257.3300 102.7554 14.98297499 44760,6950.293,96.109,574.052,570.265,0.0
56786.0,STARLINK-6341,PAYLOAD,2024-03-16 03:43:25,14.98329166,0.0002511,70.0017,348.7986,266.9399,93.1472,3.1879e-05,2.87e-06,0.0,0 STARLINK-6341,1 56786U 23078V   24076.15515141  .00000287  00000-0  31879-4 0  9993,2 56786  70.0017 348.7986 0002511 266.9399  93.1472 14.98329166 45056,6950.195,96.107,573.806,570.315,0.0
56786.0,STARLINK-6341,PAYLOAD,2024-03-16 22:57:02,14.98326599,0.0002746,70.0012,346.7795,266.5256,93.5589,1.4436e-05,7.9e-07,0.0,0 STARLINK-6341,1 56786U 23078V   24076.95627327  .00000079  00000-0  14436-4 0  9990,2 56786  70.0012 346.7795 0002746 266.5256  93.5589 14.98326599 44919,6950.203,96.107,573.977,570.16,0.0
56786.0,STARLINK-6341,PAYLOAD,2024-03-17 03:45:26,14.98328308,0.0002746,70.0013,346.2743,269.8857,90.1987,3.3057e-05,3.01e-06,0.0,0 STARLINK-6341,1 56786U 23078V   24077.15655218  .00000301  00000-0  33057-4 0  9991,2 56786  70.0013 346.2743 0002746 269.8857  90.1987 14.98328308 45209,6950.198,96.107,573.972,570.155,0.0
56786.0,STARLINK-6341,PAYLOAD,2024-03-17 21:22:54,14.9833373,0.0002852,70.0011,344.4238,270.9467,89.1365,2.9755e-05,2.62e-06,0.0,0 STARLINK-6341,1 56786U 23078V   24077.89090789  .00000262  00000-0  29755-4 0  9994,2 56786  70.0011 344.4238 0002852 270.9467  89.1365 14.98333730 45050,6950.181,96.107,574.029,570.064,0.0
56786.0,STARLINK-6341,PAYLOAD,2024-03-18 03:47:26,14.98337116,0.0002815,70.0013,343.7511,270.9336,89.15,6.4315e-05,6.75e-06,0.0,0 STARLINK-6341,1 56786U 23078V   24078.15794401  .00000675  00000-0  64315-4 0  9995,2 56786  70.0013 343.7511 0002815 270.9336  89.1500 14.98337116 45358,6950.171,96.107,573.992,570.079,0.0
56786.0,STARLINK-6341,PAYLOAD,2024-03-18 16:36:31,14.98328953,0.0002688,70.0016,342.4058,269.4546,90.6305,1.8624e-06,-7.1e-07,0.0,0 STARLINK-6341,1 56786U 23078V   24078.69202987 -.00000071  00000-0  18624-5 0  9991,2 56786  70.0016 342.4058 0002688 269.4546  90.6305 14.98328953 45435,6950.196,96.107,573.929,570.193,0.0
56786.0,STARLINK-6341,PAYLOAD,2024-03-18 21:24:55,14.98328892,0.0002687,70.0016,341.9008,269.4079,90.6772,5.6171e-07,-8.6e-07,0.0,0 STARLINK-6341,1 56786U 23078V   24078.89230988 -.00000086  00000-0  56171-6 0  9991,2 56786  70.0016 341.9008 0002687 269.4079  90.6772 14.98328892 45209,6950.196,96.107,573.929,570.194,0.0
56786.0,STARLINK-6341,PAYLOAD,2024-03-19 03:49:27,14.983291,0.000269,70.0016,341.2276,269.6843,90.4008,2.0376e-06,-6.9e-07,0.0,0 STARLINK-6341,1 56786U 23078V   24079.15934984 -.00000069  00000-0  20376-5 0  9996,2 56786  70.0016 341.2276 0002690 269.6843  90.4008 14.98329100 45241,6950.196,96.107,573.93,570.191,0.0
56786.0,STARLINK-6341,PAYLOAD,2024-03-19 21:26:55,14.98340807,0.0002739,70.0016,339.3762,264.9126,95.1721,3.3203e-05,3.03e-06,0.0,0 STARLINK-6341,1 56786U 23078V   24079.89369828  .00000303  00000-0  33203-4 0  9998,2 56786  70.0016 339.3762 0002739 264.9126  95.1721 14.98340807 45617,6950.159,96.106,573.928,570.121,0.0
56786.0,STARLINK-6341,PAYLOAD,2024-03-20 02:15:19,14.98344125,0.0002668,70.0015,338.8709,262.3962,97.6894,7.357e-05,7.85e-06,0.0,0 STARLINK-6341,1 56786U 23078V   24080.09397336  .00000785  00000-0  73570-4 0  9992,2 56786  70.0015 338.8709 0002668 262.3962  97.6894 14.98344125 45381,6950.149,96.106,573.869,570.16,0.0
56786.0,STARLINK-6341,PAYLOAD,2024-03-20 19:52:49,14.98322493,0.0002445,70.0036,337.0225,227.0601,133.0353,-3.0937e-05,-4.62e-06,0.0,0 STARLINK-6341,1 56786U 23078V   24080.82834898 -.00000462  00000-0 -30937-4 0  9996,2 56786  70.0036 337.0225 0002445 227.0601 133.0353 14.98322493 45759,6950.216,96.107,573.78,570.382,0.0
56786.0,STARLINK-6341,PAYLOAD,2024-03-20 23:05:05,14.98321036,0.0003068,70.001,336.6814,266.8566,93.2242,-0.00011666,-1.484e-05,0.0,0 STARLINK-6341,1 56786U 23078V   24080.96187371 -.00001484  00000-0 -11666-3 0  9990,2 56786  70.0010 336.6814 0003068 266.8566  93.2242 14.98321036 45513,6950.221,96.108,574.218,569.953,0.0
56786.0,STARLINK-6341,PAYLOAD,2024-03-21 10:18:01,14.98329872,0.0003153,70.0002,335.5021,274.768,85.3119,-9.851e-05,-1.268e-05,0.0,0 STARLINK-6341,1 56786U 23078V   24081.42918948 -.00001268  00000-0 -98510-4 0  9998,2 56786  70.0002 335.5021 0003153 274.7680  85.3119 14.98329872 45580,6950.193,96.107,574.25,569.867,0.0
56786.0,STARLINK-6341,PAYLOAD,2024-03-21 19:54:49,14.98340726,0.0002942,70.0007,334.4937,258.5226,101.5603,1.7857e-05,1.2e-06,0.0,0 STARLINK-6341,1 56786U 23078V   24081.82973839  .00000120  00000-0  17857-4 0  9991,2 56786  70.0007 334.4937 0002942 258.5226 101.5603 14.98340726 45906,6950.16,96.106,574.069,569.98,0.0
56786.0,STARLINK-6341,PAYLOAD,2024-03-21 23:07:05,14.98338569,0.0003119,70.0004,334.1567,262.0996,97.981,9.1499e-06,1.6e-07,0.0,0 STARLINK-6341,1 56786U 23078V   24081.96325988  .00000016  00000-0  91499-5 0  9991,2 56786  70.0004 334.1567 0003119 262.0996  97.9810 14.98338569 45663,6950.166,96.106,574.199,569.864,0.0
56786.0,STARLINK-6341,PAYLOAD,2024-03-22 02:19:21,14.98342808,0.0003441,69.9999,333.8201,270.8982,89.1783,5.4534e-05,5.58e-06,0.0,0 STARLINK-6341,1 56786U 23078V   24082.09677538  .00000558  00000-0  54534-4 0  9996,2 56786  69.9999 333.8201 0003441 270.8982  89.1783 14.98342808 45689,6950.153,96.106,574.41,569.627,0.0
56786.0,STARLINK-6341,PAYLOAD,2024-03-22 19:56:50,14.98321874,0.0003249,70.0015,331.9691,267.3373,92.7414,0.00014289,1.612e-05,0.0,0 STARLINK-6341,1 56786U 23078V   24082.83114541  .00001612  00000-0  14289-3 0  9992,2 56786  70.0015 331.9691 0003249 267.3373  92.7414 14.98321874 46057,6950.218,96.108,574.341,569.825,0.0
